GLOBALSTAR M023         
1 25621U 99004A   25023.48066622 -.00000111  00000+0 -42132-4 0  9994
2 25621  52.0105 134.0753 0010498 164.8511 274.8729 12.62494472197548
GLOBALSTAR M040         
1 25622U 99004B   25023.47833865 -.00000047  00000+0  31951-3 0  9998
2 25622  51.9913 138.0205 0001654  98.0398 340.7283 12.61998818197286
GLOBALSTAR M036         
1 25623U 99004C   25022.16968341  .00000024  00000+0  15611-2 0  9990
2 25623  51.9957 265.1928 0011347 129.4818  43.9367 11.86590829161647
GLOBALSTAR M038         
1 25624U 99004D   25023.50581208 -.00000059  00000+0  29699-3 0  9994
2 25624  51.9969 128.2353 0002736 115.3594 325.3703 12.32519138184494
GLOBALSTAR M022         
1 25649U 99012A   25023.12317164 -.00000102  00000+0 -17839-3 0  9999
2 25649  52.0068 325.2525 0001833 245.9182 237.4395 12.02494664159005
GLOBALSTAR M041         
1 25650U 99012B   25022.46323536 -.00000061  00000+0  31633-3 0  9998
2 25650  51.9987 204.0550 0002885  54.5933 305.5172 11.96670270160837
GLOBALSTAR M046         
1 25651U 99012C   25023.15481054 -.00000138  00000+0 -53855-3 0  9992
2 25651  52.0059 280.5966 0002237 346.5463 168.2077 12.09406621166468
GLOBALSTAR M037         
1 25652U 99012D   25023.15544094 -.00000036  00000+0  37512-3 0  9995
2 25652  51.9995 265.7397 0001113 207.3349 321.2300 12.62433894193010
